STARLINK-37233
1 68562U 26070W   26104.83335647 -.01299748  00000+0 -49438-2 0  9995
2 68562  53.1580 203.1560 0001063  82.3194 188.1115 15.89367545  3196
STARLINK-36238
1 68563U 26070X   26104.83335647 -.01277639  00000+0 -48690-2 0  9990
2 68563  53.1578 203.1637 0001095  71.6686 194.9696 15.89285951  3145
STARLINK-37008
1 68564U 26070Y   26104.83335647 -.01291930  00000+0 -48972-2 0  9994
2 68564  53.1579 203.1481 0000861  70.6616 203.6599 15.89421523  3198
STARLINK-37161
1 68565U 26070Z   26104.83335647 -.01298173  00000+0 -49059-2 0  9998
2 68565  53.1576 203.1399 0001015  71.2310 206.8719 15.89492124  3198
STARLINK-37212
1 68566U 26070AA  26104.83335647 -.01295241  00000+0 -48682-2 0  9993
2 68566  53.1577 203.1332 0000864  67.5085 213.7201 15.89594175  3197
STARLINK-37261
1 68567U 26070AB  26104.83335647 -.01307305  00000+0 -49060-2 0  9990
2 68567  53.1577 203.1248 0000872  79.5975 205.7695 15.89648293  3193
STARLINK-37283
1 68568U 26070AC  26104.83335647 -.00407660  00000+0 -21329-2 0  9993
2 68568  53.1594 203.4468 0001099  59.1294  70.7862 15.81152034  3191
STARLINK-37256
1 68569U 26070AD  26104.83335647 -.01098949  00000+0 -59578-2 0  9998
2 68569  53.1596 203.4566 0001115  67.1403  58.1561 15.81711658  3192
STARLINK-37228
1 68570U 26070AE  26104.83335647 -.00031904  00000+0 -15849-3 0  9991
2 68570  53.1596 203.4380 0000898  70.0141  64.3012 15.80901791  3195
MERIDIAN-M 21L
1 68571U 26071A   26104.39797981  .00000489  00000+0  80352-2 0  9999
2 68571  62.7790 237.3403 7234647 284.9939  10.8160  1.98596107   236
KUIPER-00131
1 68573U 26072A   26104.83335647  .00022114  00000+0  60767-3 0  9996
2 68573  51.8695 123.3381 0006768 139.6169 208.0446 15.37122819  2553
KUIPER-00189
1 68574U 26072B   26104.83335647  .00021381  00000+0  71618-3 0  9999
2 68574  51.8794 123.3198 0001871  50.6893 293.3533 15.30878834  2132
KUIPER-00192
1 68575U 26072C   26104.83335647  .00022462  00000+0  60797-3 0  9997
2 68575  51.8746 123.2992 0005106 130.0762 235.3188 15.37590479  1307
KUIPER-00193
1 68576U 26072D   26104.83335647  .00022684  00000+0  61322-3 0  9999
2 68576  51.8748 123.2841 0003384 117.4634 255.0187 15.37627750  1307
KUIPER-00194
1 68577U 26072E   26104.83335647  .00023621  00000+0  62929-3 0  9996
2 68577  51.8759 123.2518 0002926 113.5947 273.0231 15.38057125  2378
KUIPER-00229
1 68578U 26072F   26104.83335647  .00021872  00000+0  60556-3 0  9997
2 68578  51.8707 123.3508 0007593 135.9480 205.4166 15.36889188  2676
FREGAT R/B
1 68572U 26071B   26093.32132148 -.00001541  00000+0  35052-3 0  9997
2 68572  63.0589 237.9448 7313819 284.9724  10.3188  2.01041412    13
