[{"OBJECT_NAME":"STARLINK-37233","OBJECT_ID":"2026-070W","EPOCH":"2026-04-14T20:00:01.999008","MEAN_MOTION":15.89367545,"ECCENTRICITY":0.0001063,"INCLINATION":53.158,"RA_OF_ASC_NODE":203.156,"ARG_OF_PERICENTER":82.3194,"MEAN_ANOMALY":188.1115,"EPHEMERIS_TYPE":0,"CLASSIFICATION_TYPE":"U","NORAD_CAT_ID":68562,"ELEMENT_SET_NO":999,"REV_AT_EPOCH":319,"BSTAR":-0.0049438,"MEAN_MOTION_DOT":-0.01299748,"MEAN_MOTION_DDOT":0},{"OBJECT_NAME":"STARLINK-36238","OBJECT_ID":"2026-070X","EPOCH":"2026-04-14T20:00:01.999008","MEAN_MOTION":15.89285951,"ECCENTRICITY":0.0001095,"INCLINATION":53.1578,"RA_OF_ASC_NODE":203.1637,"ARG_OF_PERICENTER":71.6686,"MEAN_ANOMALY":194.9696,"EPHEMERIS_TYPE":0,"CLASSIFICATION_TYPE":"U","NORAD_CAT_ID":68563,"ELEMENT_SET_NO":999,"REV_AT_EPOCH":314,"BSTAR":-0.004869,"MEAN_MOTION_DOT":-0.01277639,"MEAN_MOTION_DDOT":0},{"OBJECT_NAME":"STARLINK-37008","OBJECT_ID":"2026-070Y","EPOCH":"2026-04-14T20:00:01.999008","MEAN_MOTION":15.89421523,"ECCENTRICITY":8.61e-5,"INCLINATION":53.1579,"RA_OF_ASC_NODE":203.1481,"ARG_OF_PERICENTER":70.6616,"MEAN_ANOMALY":203.6599,"EPHEMERIS_TYPE":0,"CLASSIFICATION_TYPE":"U","NORAD_CAT_ID":68564,"ELEMENT_SET_NO":999,"REV_AT_EPOCH":319,"BSTAR":-0.0048972,"MEAN_MOTION_DOT":-0.0129193,"MEAN_MOTION_DDOT":0},{"OBJECT_NAME":"STARLINK-37161","OBJECT_ID":"2026-070Z","EPOCH":"2026-04-14T20:00:01.999008","MEAN_MOTION":15.89492124,"ECCENTRICITY":0.0001015,"INCLINATION":53.1576,"RA_OF_ASC_NODE":203.1399,"ARG_OF_PERICENTER":71.231,"MEAN_ANOMALY":206.8719,"EPHEMERIS_TYPE":0,"CLASSIFICATION_TYPE":"U","NORAD_CAT_ID":68565,"ELEMENT_SET_NO":999,"REV_AT_EPOCH":319,"BSTAR":-0.0049059,"MEAN_MOTION_DOT":-0.01298173,"MEAN_MOTION_DDOT":0},{"OBJECT_NAME":"STARLINK-37212","OBJECT_ID":"2026-070AA","EPOCH":"2026-04-14T20:00:01.999008","MEAN_MOTION":15.89594175,"ECCENTRICITY":8.64e-5,"INCLINATION":53.1577,"RA_OF_ASC_NODE":203.1332,"ARG_OF_PERICENTER":67.5085,"MEAN_ANOMALY":213.7201,"EPHEMERIS_TYPE":0,"CLASSIFICATION_TYPE":"U","NORAD_CAT_ID":68566,"ELEMENT_SET_NO":999,"REV_AT_EPOCH":319,"BSTAR":-0.0048682,"MEAN_MOTION_DOT":-0.01295241,"MEAN_MOTION_DDOT":0},{"OBJECT_NAME":"STARLINK-37261","OBJECT_ID":"2026-070AB","EPOCH":"2026-04-14T20:00:01.999008","MEAN_MOTION":15.89648293,"ECCENTRICITY":8.72e-5,"INCLINATION":53.1577,"RA_OF_ASC_NODE":203.1248,"ARG_OF_PERICENTER":79.5975,"MEAN_ANOMALY":205.7695,"EPHEMERIS_TYPE":0,"CLASSIFICATION_TYPE":"U","NORAD_CAT_ID":68567,"ELEMENT_SET_NO":999,"REV_AT_EPOCH":319,"BSTAR":-0.004906,"MEAN_MOTION_DOT":-0.01307305,"MEAN_MOTION_DDOT":0},{"OBJECT_NAME":"STARLINK-37283","OBJECT_ID":"2026-070AC","EPOCH":"2026-04-14T20:00:01.999008","MEAN_MOTION":15.81152034,"ECCENTRICITY":0.0001099,"INCLINATION":53.1594,"RA_OF_ASC_NODE":203.4468,"ARG_OF_PERICENTER":59.1294,"MEAN_ANOMALY":70.7862,"EPHEMERIS_TYPE":0,"CLASSIFICATION_TYPE":"U","NORAD_CAT_ID":68568,"ELEMENT_SET_NO":999,"REV_AT_EPOCH":319,"BSTAR":-0.0021329,"MEAN_MOTION_DOT":-0.0040766,"MEAN_MOTION_DDOT":0},{"OBJECT_NAME":"STARLINK-37256","OBJECT_ID":"2026-070AD","EPOCH":"2026-04-14T20:00:01.999008","MEAN_MOTION":15.81711658,"ECCENTRICITY":0.0001115,"INCLINATION":53.1596,"RA_OF_ASC_NODE":203.4566,"ARG_OF_PERICENTER":67.1403,"MEAN_ANOMALY":58.1561,"EPHEMERIS_TYPE":0,"CLASSIFICATION_TYPE":"U","NORAD_CAT_ID":68569,"ELEMENT_SET_NO":999,"REV_AT_EPOCH":319,"BSTAR":-0.0059578,"MEAN_MOTION_DOT":-0.01098949,"MEAN_MOTION_DDOT":0},{"OBJECT_NAME":"STARLINK-37228","OBJECT_ID":"2026-070AE","EPOCH":"2026-04-14T20:00:01.999008","MEAN_MOTION":15.80901791,"ECCENTRICITY":8.98e-5,"INCLINATION":53.1596,"RA_OF_ASC_NODE":203.438,"ARG_OF_PERICENTER":70.0141,"MEAN_ANOMALY":64.3012,"EPHEMERIS_TYPE":0,"CLASSIFICATION_TYPE":"U","NORAD_CAT_ID":68570,"ELEMENT_SET_NO":999,"REV_AT_EPOCH":319,"BSTAR":-0.00015849,"MEAN_MOTION_DOT":-0.00031904,"MEAN_MOTION_DDOT":0},{"OBJECT_NAME":"MERIDIAN-M 21L","OBJECT_ID":"2026-071A","EPOCH":"2026-04-14T09:33:05.455584","MEAN_MOTION":1.98596107,"ECCENTRICITY":0.7234647,"INCLINATION":62.779,"RA_OF_ASC_NODE":237.3403,"ARG_OF_PERICENTER":284.9939,"MEAN_ANOMALY":10.816,"EPHEMERIS_TYPE":0,"CLASSIFICATION_TYPE":"U","NORAD_CAT_ID":68571,"ELEMENT_SET_NO":999,"REV_AT_EPOCH":23,"BSTAR":0.0080352,"MEAN_MOTION_DOT":4.89e-6,"MEAN_MOTION_DDOT":0},{"OBJECT_NAME":"FREGAT R/B","OBJECT_ID":"2026-071B","EPOCH":"2026-04-03T07:42:42.175872","MEAN_MOTION":2.01041412,"ECCENTRICITY":0.73138199,"INCLINATION":63.0589,"RA_OF_ASC_NODE":237.9448,"ARG_OF_PERICENTER":284.9724,"MEAN_ANOMALY":10.3188,"EPHEMERIS_TYPE":0,"CLASSIFICATION_TYPE":"U","NORAD_CAT_ID":68572,"ELEMENT_SET_NO":999,"REV_AT_EPOCH":1,"BSTAR":0.00035051942,"MEAN_MOTION_DOT":-1.541e-5,"MEAN_MOTION_DDOT":0},{"OBJECT_NAME":"KUIPER-00131","OBJECT_ID":"2026-072A","EPOCH":"2026-04-14T20:00:01.999008","MEAN_MOTION":15.37122819,"ECCENTRICITY":0.0006768,"INCLINATION":51.8695,"RA_OF_ASC_NODE":123.3381,"ARG_OF_PERICENTER":139.6169,"MEAN_ANOMALY":208.0446,"EPHEMERIS_TYPE":0,"CLASSIFICATION_TYPE":"U","NORAD_CAT_ID":68573,"ELEMENT_SET_NO":999,"REV_AT_EPOCH":255,"BSTAR":0.00060767,"MEAN_MOTION_DOT":0.00022114,"MEAN_MOTION_DDOT":0},{"OBJECT_NAME":"KUIPER-00189","OBJECT_ID":"2026-072B","EPOCH":"2026-04-14T20:00:01.999008","MEAN_MOTION":15.30878834,"ECCENTRICITY":0.0001871,"INCLINATION":51.8794,"RA_OF_ASC_NODE":123.3198,"ARG_OF_PERICENTER":50.6893,"MEAN_ANOMALY":293.3533,"EPHEMERIS_TYPE":0,"CLASSIFICATION_TYPE":"U","NORAD_CAT_ID":68574,"ELEMENT_SET_NO":999,"REV_AT_EPOCH":213,"BSTAR":0.00071618,"MEAN_MOTION_DOT":0.00021381,"MEAN_MOTION_DDOT":0},{"OBJECT_NAME":"KUIPER-00192","OBJECT_ID":"2026-072C","EPOCH":"2026-04-14T20:00:01.999008","MEAN_MOTION":15.37590479,"ECCENTRICITY":0.0005106,"INCLINATION":51.8746,"RA_OF_ASC_NODE":123.2992,"ARG_OF_PERICENTER":130.0762,"MEAN_ANOMALY":235.3188,"EPHEMERIS_TYPE":0,"CLASSIFICATION_TYPE":"U","NORAD_CAT_ID":68575,"ELEMENT_SET_NO":999,"REV_AT_EPOCH":130,"BSTAR":0.00060797,"MEAN_MOTION_DOT":0.00022462,"MEAN_MOTION_DDOT":0},{"OBJECT_NAME":"KUIPER-00193","OBJECT_ID":"2026-072D","EPOCH":"2026-04-14T20:00:01.999008","MEAN_MOTION":15.3762775,"ECCENTRICITY":0.0003384,"INCLINATION":51.8748,"RA_OF_ASC_NODE":123.2841,"ARG_OF_PERICENTER":117.4634,"MEAN_ANOMALY":255.0187,"EPHEMERIS_TYPE":0,"CLASSIFICATION_TYPE":"U","NORAD_CAT_ID":68576,"ELEMENT_SET_NO":999,"REV_AT_EPOCH":130,"BSTAR":0.00061322,"MEAN_MOTION_DOT":0.00022684,"MEAN_MOTION_DDOT":0},{"OBJECT_NAME":"KUIPER-00194","OBJECT_ID":"2026-072E","EPOCH":"2026-04-14T20:00:01.999008","MEAN_MOTION":15.38057125,"ECCENTRICITY":0.0002926,"INCLINATION":51.8759,"RA_OF_ASC_NODE":123.2518,"ARG_OF_PERICENTER":113.5947,"MEAN_ANOMALY":273.0231,"EPHEMERIS_TYPE":0,"CLASSIFICATION_TYPE":"U","NORAD_CAT_ID":68577,"ELEMENT_SET_NO":999,"REV_AT_EPOCH":237,"BSTAR":0.00062929,"MEAN_MOTION_DOT":0.00023621,"MEAN_MOTION_DDOT":0},{"OBJECT_NAME":"KUIPER-00229","OBJECT_ID":"2026-072F","EPOCH":"2026-04-14T20:00:01.999008","MEAN_MOTION":15.36889188,"ECCENTRICITY":0.0007593,"INCLINATION":51.8707,"RA_OF_ASC_NODE":123.3508,"ARG_OF_PERICENTER":135.948,"MEAN_ANOMALY":205.4166,"EPHEMERIS_TYPE":0,"CLASSIFICATION_TYPE":"U","NORAD_CAT_ID":68578,"ELEMENT_SET_NO":999,"REV_AT_EPOCH":267,"BSTAR":0.00060556,"MEAN_MOTION_DOT":0.00021872,"MEAN_MOTION_DDOT":0}]
